ORBCOMM FM33 [-]        
1 25983U 99065D   24020.15341984  .00001625  00000+0  58794-3 0  9998
2 25983  45.0289 277.1970 0009508 357.1149 158.7314 14.37209910262041
ORBCOMM FM35 [+]        
1 25985U 99065F   24020.28890384  .00001998  00000+0  74836-3 0  9995
2 25985  45.0411   2.4672 0004544 327.6176  32.4392 14.34734665260921
ORBCOMM FM34 [-]        
1 25986U 99065G   24020.32585445  .00001895  00000+0  71257-3 0  9990
2 25986  45.0406   2.7983 0005522 290.3881  69.6373 14.34690859261041
ORBCOMM FM38 [-]        
1 33060U 08031A   24020.56174012  .00002811  00000+0  42566-3 0  9995
2 33060  48.4401 234.0167 0005197 355.4361   4.6505 14.76781581838723
ORBCOMM FM41 [-]        
1 33061U 08031B   24020.00517119  .00002618  00000+0  40093-3 0  9992
2 33061  48.4434 243.0137 0004269 337.2276 165.1247 14.76522167838144
ORBCOMM FM29 [-]        
1 33062U 08031C   24019.11107630  .00003045  00000+0  46245-3 0  9996
2 33062  48.4388 255.2605 0006368 335.1920 185.5340 14.76421995837925
